{
  "type": "FeatureCollection",
  "features": [
    {
      "type": "Feature",
      "properties": {
        "norad_id": 32275,
        "name": "COSMOS 2433 (720)",
        "group": "glo-ops",
        "lat": -64.78177754449982,
        "lon": -144.5374982428715,
        "alt_km": 19123.405533898193,
        "timestamp": "2025-12-25T03:55:56.618079+00:00",
        "meta_object_name": "COSMOS 2433 (720)",
        "meta_object_id": "2007-052A",
        "meta_epoch": "2025-12-24T08:26:16.805760",
        "meta_mean_motion": 2.13104186,
        "meta_eccentricity": 0.0005104,
        "meta_inclination": 65.677,
        "meta_ra_of_asc_node": 321.8159,
        "meta_arg_of_pericenter": 257.0223,
        "meta_mean_anomaly": 102.9214,
        "meta_ephemeris_type": 0,
        "meta_classification_type": "U",
        "meta_norad_cat_id": 32275,
        "meta_element_set_no": 999,
        "meta_rev_at_epoch": 14133,
        "meta_bstar": 0,
        "meta_mean_motion_dot": -3.3e-07,
        "meta_mean_motion_ddot": 0,
        "tle_line1": "1 32275U 07052A   25358.35158340 -.00000033  00000+0  00000+0 0  9990",
        "tle_line2": "2 32275  65.6770 321.8159 0005104 257.0223 102.9214  2.13104186141339"
      },
      "geometry": {
        "type": "Point",
        "coordinates": [
          -144.5374982428715,
          -64.78177754449982
        ]
      }
    },
    {
      "type": "Feature",
      "properties": {
        "norad_id": 32276,
        "name": "COSMOS 2432 (719)",
        "group": "glo-ops",
        "lat": -24.840969316004433,
        "lon": 153.96744612219683,
        "alt_km": 19141.96780115754,
        "timestamp": "2025-12-25T03:55:56.618102+00:00",
        "meta_object_name": "COSMOS 2432 (719)",
        "meta_object_id": "2007-052B",
        "meta_epoch": "2025-12-24T04:32:38.772960",
        "meta_mean_motion": 2.13103387,
        "meta_eccentricity": 0.00113791,
        "meta_inclination": 65.6931,
        "meta_ra_of_asc_node": 321.9458,
        "meta_arg_of_pericenter": 314.7871,
        "meta_mean_anomaly": 225.1187,
        "meta_ephemeris_type": 0,
        "meta_classification_type": "U",
        "meta_norad_cat_id": 32276,
        "meta_element_set_no": 999,
        "meta_rev_at_epoch": 14135,
        "meta_bstar": 0,
        "meta_mean_motion_dot": -3.3e-07,
        "meta_mean_motion_ddot": 0,
        "tle_line1": "1 32276U 07052B   25358.18933765 -.00000033  00000+0  00000+0 0  9994",
        "tle_line2": "2 32276  65.6931 321.9458 0011379 314.7871 225.1187  2.13103387141354"
      },
      "geometry": {
        "type": "Point",
        "coordinates": [
          153.96744612219683,
          -24.840969316004433
        ]
      }
    },
    {
      "type": "Feature",
      "properties": {
        "norad_id": 32393,
        "name": "COSMOS 2434 (721)",
        "group": "glo-ops",
        "lat": 23.50497233012766,
        "lon": 5.701126554742594,
        "alt_km": 19125.488771060922,
        "timestamp": "2025-12-25T03:55:56.618117+00:00",
        "meta_object_name": "COSMOS 2434 (721)",
        "meta_object_id": "2007-065A",
        "meta_epoch": "2025-12-24T05:14:54.087648",
        "meta_mean_motion": 2.13101448,
        "meta_eccentricity": 0.00048186,
        "meta_inclination": 64.3158,
        "meta_ra_of_asc_node": 197.8158,
        "meta_arg_of_pericenter": 72.4186,
        "meta_mean_anomaly": 76.1522,
        "meta_ephemeris_type": 0,
        "meta_classification_type": "U",
        "meta_norad_cat_id": 32393,
        "meta_element_set_no": 999,
        "meta_rev_at_epoch": 14004,
        "meta_bstar": 0,
        "meta_mean_motion_dot": 9.8e-07,
        "meta_mean_motion_ddot": 0,
        "tle_line1": "1 32393U 07065A   25358.21868157  .00000098  00000+0  00000+0 0  9994",
        "tle_line2": "2 32393  64.3158 197.8158 0004818  72.4186  76.1522  2.13101448140043"
      },
      "geometry": {
        "type": "Point",
        "coordinates": [
          5.701126554742594,
          23.50497233012766
        ]
      }
    },
    {
      "type": "Feature",
      "properties": {
        "norad_id": 32395,
        "name": "COSMOS 2436 (723)",
        "group": "glo-ops",
        "lat": -59.78654955891692,
        "lon": 142.12102868650982,
        "alt_km": 19131.396500747087,
        "timestamp": "2025-12-25T03:55:56.618130+00:00",
        "meta_object_name": "COSMOS 2436 (723)",
        "meta_object_id": "2007-065C",
        "meta_epoch": "2025-12-23T14:51:15.098400",
        "meta_mean_motion": 2.13100222,
        "meta_eccentricity": 0.00178112,
        "meta_inclination": 64.3245,
        "meta_ra_of_asc_node": 197.9064,
        "meta_arg_of_pericenter": 10.214,
        "meta_mean_anomaly": 171.2752,
        "meta_ephemeris_type": 0,
        "meta_classification_type": "U",
        "meta_norad_cat_id": 32395,
        "meta_element_set_no": 999,
        "meta_rev_at_epoch": 13998,
        "meta_bstar": 0,
        "meta_mean_motion_dot": 9.6e-07,
        "meta_mean_motion_ddot": 0,
        "tle_line1": "1 32395U 07065C   25357.61892475  .00000096  00000+0  00000+0 0  9997",
        "tle_line2": "2 32395  64.3245 197.9064 0017811  10.2140 171.2752  2.13100222139988"
      },
      "geometry": {
        "type": "Point",
        "coordinates": [
          142.12102868650982,
          -59.78654955891692
        ]
      }
    },
    {
      "type": "Feature",
      "properties": {
        "norad_id": 36111,
        "name": "COSMOS 2456 (730)",
        "group": "glo-ops",
        "lat": -43.29346568852631,
        "lon": 50.76873639350782,
        "alt_km": 19126.081855966946,
        "timestamp": "2025-12-25T03:55:56.618142+00:00",
        "meta_object_name": "COSMOS 2456 (730)",
        "meta_object_id": "2009-070A",
        "meta_epoch": "2025-12-24T01:59:16.692576",
        "meta_mean_motion": 2.13103745,
        "meta_eccentricity": 0.00036505,
        "meta_inclination": 64.9059,
        "meta_ra_of_asc_node": 76.9503,
        "meta_arg_of_pericenter": 295.0224,
        "meta_mean_anomaly": 266.4736,
        "meta_ephemeris_type": 0,
        "meta_classification_type": "U",
        "meta_norad_cat_id": 36111,
        "meta_element_set_no": 999,
        "meta_rev_at_epoch": 12469,
        "meta_bstar": 0,
        "meta_mean_motion_dot": -1e-08,
        "meta_mean_motion_ddot": 0,
        "tle_line1": "1 36111U 09070A   25358.08283209 -.00000001  00000+0  00000+0 0  9993",
        "tle_line2": "2 36111  64.9059  76.9503 0003650 295.0224 266.4736  2.13103745124697"
      },
      "geometry": {
        "type": "Point",
        "coordinates": [
          50.76873639350782,
          -43.29346568852631
        ]
      }
    },
    {
      "type": "Feature",
      "properties": {
        "norad_id": 36112,
        "name": "COSMOS 2457 (733)",
        "group": "glo-ops",
        "lat": 63.030803528663384,
        "lon": 143.7240175527891,
        "alt_km": 19121.76282634109,
        "timestamp": "2025-12-25T03:55:56.618154+00:00",
        "meta_object_name": "COSMOS 2457 (733)",
        "meta_object_id": "2009-070B",
        "meta_epoch": "2025-12-23T15:49:23.328192",
        "meta_mean_motion": 2.13101141,
        "meta_eccentricity": 0.00045057,
        "meta_inclination": 64.8913,
        "meta_ra_of_asc_node": 76.812,
        "meta_arg_of_pericenter": 162.7292,
        "meta_mean_anomaly": 202.8862,
        "meta_ephemeris_type": 0,
        "meta_classification_type": "U",
        "meta_norad_cat_id": 36112,
        "meta_element_set_no": 999,
        "meta_rev_at_epoch": 12469,
        "meta_bstar": 0,
        "meta_mean_motion_dot": -1e-08,
        "meta_mean_motion_ddot": 0,
        "tle_line1": "1 36112U 09070B   25357.65929778 -.00000001  00000+0  00000+0 0  9994",
        "tle_line2": "2 36112  64.8913  76.8120 0004505 162.7292 202.8862  2.13101141124697"
      },
      "geometry": {
        "type": "Point",
        "coordinates": [
          143.7240175527891,
          63.030803528663384
        ]
      }
    },
    {
      "type": "Feature",
      "properties": {
        "norad_id": 36402,
        "name": "COSMOS 2460 (732)",
        "group": "glo-ops",
        "lat": 63.51720281768625,
        "lon": 26.360789459911835,
        "alt_km": 19128.524838206013,
        "timestamp": "2025-12-25T03:55:56.618165+00:00",
        "meta_object_name": "COSMOS 2460 (732)",
        "meta_object_id": "2010-007C",
        "meta_epoch": "2025-12-24T05:56:36.176352",
        "meta_mean_motion": 2.1310636,
        "meta_eccentricity": 0.00024969,
        "meta_inclination": 65.5233,
        "meta_ra_of_asc_node": 320.3848,
        "meta_arg_of_pericenter": 284.0836,
        "meta_mean_anomaly": 172.5466,
        "meta_ephemeris_type": 0,
        "meta_classification_type": "U",
        "meta_norad_cat_id": 36402,
        "meta_element_set_no": 999,
        "meta_rev_at_epoch": 12300,
        "meta_bstar": 0,
        "meta_mean_motion_dot": -3.3e-07,
        "meta_mean_motion_ddot": 0,
        "tle_line1": "1 36402U 10007C   25358.24764093 -.00000033  00000+0  00000+0 0  9996",
        "tle_line2": "2 36402  65.5233 320.3848 0002496 284.0836 172.5466  2.13106360123000"
      },
      "geometry": {
        "type": "Point",
        "coordinates": [
          26.360789459911835,
          63.51720281768625
        ]
      }
    }
  ]
}